NORAD_CAT_ID,OBJECT_NAME,OBJECT_TYPE,EPOCH,MEAN_MOTION,ECCENTRICITY,INCLINATION,RA_OF_ASC_NODE,ARG_OF_PERICENTER,MEAN_ANOMALY,BSTAR,MEAN_MOTION_DOT,MEAN_MOTION_DDOT,TLE_LINE0,TLE_LINE1,TLE_LINE2,SEMIMAJOR_AXIS,PERIOD,APOGEE,PERIGEE,DECAYED
52617.0,STARLINK-3996,PAYLOAD,2023-02-06 20:51:18,15.0887857,6.48e-05,53.2166,287.6154,97.8419,262.2646,0.0020307,0.00032213,0.0,0 STARLINK-3996,1 52617U 22052V   23037.86896279  .00032213  00000-0  20307-2 0  9997,2 52617  53.2166 287.6154 0000648  97.8419 262.2646 15.08878570 40871,6917.762,95.435,540.076,539.179,0.0
52617.0,STARLINK-3996,PAYLOAD,2023-02-07 03:12:50,15.08896491,5.78e-05,53.2162,286.4257,96.2548,263.851,0.0021321,0.0003386,0.0,0 STARLINK-3996,1 52617U 22052V   23038.13391422  .00033860  00000-0  21321-2 0  9994,2 52617  53.2162 286.4257 0000578  96.2548 263.8510 15.08896491 41292,6917.708,95.434,539.973,539.173,0.0
52617.0,STARLINK-3996,PAYLOAD,2023-02-07 22:17:27,15.08866396,6.83e-05,53.2163,282.8568,54.2242,305.8814,0.0015166,0.00023949,0.0,0 STARLINK-3996,1 52617U 22052V   23038.92879093  .00023949  00000-0  15166-2 0  9993,2 52617  53.2163 282.8568 0000683  54.2242 305.8814 15.08866396 41037,6917.8,95.436,540.137,539.192,0.0
52617.0,STARLINK-3996,PAYLOAD,2023-02-08 22:08:15,15.08839803,6.2e-05,53.2166,278.3952,86.3349,273.7714,0.0013685,0.00021559,0.0,0 STARLINK-3996,1 52617U 22052V   23039.92239761  .00021559  00000-0  13685-2 0  9995,2 52617  53.2166 278.3952 0000620  86.3349 273.7714 15.08839803 41183,6917.881,95.438,540.175,539.317,0.0
52617.0,STARLINK-3996,PAYLOAD,2023-02-09 01:19:01,15.08833421,6.96e-05,53.2165,277.8008,79.1483,280.9587,0.00091773,0.00014345,0.0,0 STARLINK-3996,1 52617U 22052V   23040.05487906  .00014345  00000-0  91773-3 0  9997,2 52617  53.2165 277.8008 0000696  79.1483 280.9587 15.08833421 41582,6917.9,95.438,540.247,539.284,0.0
52617.0,STARLINK-3996,PAYLOAD,2023-02-09 21:59:01,15.08863842,9.77e-05,53.2173,273.9347,66.6429,293.4665,0.0011328,0.00017798,0.0,0 STARLINK-3996,1 52617U 22052V   23040.91599465  .00017798  00000-0  11328-2 0  9998,2 52617  53.2173 273.9347 0000977  66.6429 293.4665 15.08863842 41336,6917.808,95.436,540.348,538.997,0.0
52617.0,STARLINK-3996,PAYLOAD,2023-02-10 01:09:47,15.08881775,0.0001163,53.2166,273.3382,70.6059,289.5059,0.0017461,0.00027642,0.0,0 STARLINK-3996,1 52617U 22052V   23041.04847072  .00027642  00000-0  17461-2 0  9996,2 52617  53.2166 273.3382 0001163  70.6059 289.5059 15.08881775 41735,6917.753,95.435,540.422,538.813,0.0
52617.0,STARLINK-3996,PAYLOAD,2023-02-10 21:49:48,15.08856696,3.36e-05,53.2171,269.4737,53.0821,307.0202,0.0016751,0.00026484,0.0,0 STARLINK-3996,1 52617U 22052V   23041.90958974  .00026484  00000-0  16751-2 0  9999,2 52617  53.2171 269.4737 0000336  53.0821 307.0202 15.08856696 41486,6917.829,95.436,539.927,539.462,0.0
52617.0,STARLINK-3996,PAYLOAD,2023-02-11 05:46:44,15.08861768,0.0001041,53.2166,267.986,83.9421,276.1689,0.0017857,0.00028263,0.0,0 STARLINK-3996,1 52617U 22052V   23042.24078716  .00028263  00000-0  17857-2 0  9999,2 52617  53.2166 267.9860 0001041  83.9421 276.1689 15.08861768 41539,6917.814,95.436,540.399,538.959,0.0
52617.0,STARLINK-3996,PAYLOAD,2023-02-11 21:40:35,15.08839295,0.0001508,53.2165,265.0114,75.5295,284.5864,0.0011389,0.00017884,0.0,0 STARLINK-3996,1 52617U 22052V   23042.90319370  .00017884  00000-0  11389-2 0  9997,2 52617  53.2165 265.0114 0001508  75.5295 284.5864 15.08839295 41632,6917.883,95.438,540.791,538.704,0.0
52617.0,STARLINK-3996,PAYLOAD,2023-02-11 23:15:59,15.08834292,0.0001579,53.2161,264.7137,73.3562,286.7604,0.00068901,0.00010693,0.0,0 STARLINK-3996,1 52617U 22052V   23042.96943406  .00010693  00000-0  68901-3 0  9990,2 52617  53.2161 264.7137 0001579  73.3562 286.7604 15.08834292 42022,6917.898,95.438,540.855,538.671,0.0
52617.0,STARLINK-3996,PAYLOAD,2023-02-12 13:34:27,15.08835815,0.0001625,53.2164,262.039,86.7709,273.3469,0.00021711,3.169e-05,0.0,0 STARLINK-3996,1 52617U 22052V   23043.56559695  .00003169  00000-0  21711-3 0  9998,2 52617  53.2164 262.0390 0001625  86.7709 273.3469 15.08835815 41730,6917.893,95.438,540.882,538.634,0.0
52617.0,STARLINK-3996,PAYLOAD,2023-02-13 07:03:42,15.0883798,0.0001429,53.2167,258.7681,91.8154,268.3002,0.00036951,5.597e-05,0.0,0 STARLINK-3996,1 52617U 22052V   23044.29423990  .00005597  00000-0  36951-3 0  9996,2 52617  53.2167 258.7681 0001429  91.8154 268.3002 15.08837980 41845,6917.887,95.438,540.74,538.763,0.0
52617.0,STARLINK-3996,PAYLOAD,2023-02-13 15:00:38,15.08836076,0.0001465,53.2163,257.2816,89.0728,271.0432,0.00015354,2.156e-05,0.0,0 STARLINK-3996,1 52617U 22052V   23044.62544124  .00002156  00000-0  15354-3 0  9998,2 52617  53.2163 257.2816 0001465  89.0728 271.0432 15.08836076 42272,6917.892,95.438,540.771,538.744,0.0
52617.0,STARLINK-3996,PAYLOAD,2023-02-14 06:54:29,15.08838503,0.0001629,53.2158,254.3076,85.386,274.7318,0.00012424,1.69e-05,0.0,0 STARLINK-3996,1 52617U 22052V   23045.28784265  .00001690  00000-0  12424-3 0  9990,2 52617  53.2158 254.3076 0001629  85.3860 274.7318 15.08838503 41998,6917.885,95.438,540.877,538.623,0.0
52617.0,STARLINK-3996,PAYLOAD,2023-02-15 13:06:48,15.0884751,0.0001726,53.2137,248.6581,85.4299,274.689,0.00024527,3.618e-05,0.0,0 STARLINK-3996,1 52617U 22052V   23046.54640042  .00003618  00000-0  24527-3 0  9993,2 52617  53.2137 248.6581 0001726  85.4299 274.6890 15.08847510 42181,6917.857,95.437,540.916,538.528,0.0
52617.0,STARLINK-3996,PAYLOAD,2023-02-15 19:28:21,15.08849827,0.0001493,53.2142,247.468,85.8709,274.2454,0.00031541,4.737e-05,0.0,0 STARLINK-3996,1 52617U 22052V   23046.81135896  .00004737  00000-0  31541-3 0  9996,2 52617  53.2142 247.4680 0001493  85.8709 274.2454 15.08849827 42607,6917.85,95.437,540.748,538.683,0.0
52617.0,STARLINK-3996,PAYLOAD,2023-02-16 06:36:03,15.08843259,0.0001509,53.2157,245.3889,78.1911,281.925,0.00018874,2.717e-05,0.0,0 STARLINK-3996,1 52617U 22052V   23047.27504134  .00002717  00000-0  18874-3 0  9992,2 52617  53.2157 245.3889 0001509  78.1911 281.9250 15.08843259 42678,6917.87,95.437,540.779,538.692,0.0
52617.0,STARLINK-3996,PAYLOAD,2023-02-16 12:57:36,15.08841844,0.0001652,53.2191,244.1987,82.2091,277.9088,0.0001604,2.266e-05,0.0,0 STARLINK-3996,1 52617U 22052V   23047.54000337  .00002266  00000-0  16040-3 0  9990,2 52617  53.2191 244.1987 0001652  82.2091 277.9088 15.08841844 42331,6917.875,95.437,540.883,538.597,0.0
52617.0,STARLINK-3996,PAYLOAD,2023-02-16 19:19:08,15.08845622,0.000202,53.2155,243.0116,77.6472,282.4746,0.00015291,2.147e-05,0.0,0 STARLINK-3996,1 52617U 22052V   23047.80496129  .00002147  00000-0  15291-3 0  9992,2 52617  53.2155 243.0116 0002020  77.6472 282.4746 15.08845622 42378,6917.863,95.437,541.126,538.331,0.0
52617.0,STARLINK-3996,PAYLOAD,2023-02-17 06:26:50,15.08841168,0.0001384,53.2168,240.9266,86.9995,273.1156,8.3657e-05,1.044e-05,0.0,0 STARLINK-3996,1 52617U 22052V   23048.26864177  .00001044  00000-0  83657-4 0  9992,2 52617  53.2168 240.9266 0001384  86.9995 273.1156 15.08841168 42822,6917.877,95.437,540.699,538.784,0.0
52617.0,STARLINK-3996,PAYLOAD,2023-02-17 12:48:23,15.08838531,0.0001484,53.215,239.7385,83.2816,276.8345,0.0001001,1.305e-05,0.0,0 STARLINK-3996,1 52617U 22052V   23048.53360359  .00001305  00000-0  10010-3 0  9997,2 52617  53.2150 239.7385 0001484  83.2816 276.8345 15.08838531 42486,6917.885,95.438,540.776,538.723,0.0
52617.0,STARLINK-3996,PAYLOAD,2023-02-17 19:09:55,15.08843668,0.0001158,53.216,238.5478,89.2318,270.8806,7.3525e-05,8.83e-06,0.0,0 STARLINK-3996,1 52617U 22052V   23048.79856130  .00000883  00000-0  73525-4 0  9993,2 52617  53.2160 238.5478 0001158  89.2318 270.8806 15.08843668 42526,6917.869,95.437,540.535,538.933,0.0
52617.0,STARLINK-3996,PAYLOAD,2023-02-18 12:39:10,15.08835863,0.0001094,53.2155,235.2774,90.1448,269.9669,0.00013009,1.783e-05,0.0,0 STARLINK-3996,1 52617U 22052V   23049.52720530  .00001783  00000-0  13009-3 0  9999,2 52617  53.2155 235.2774 0001094  90.1448 269.9669 15.08835863 42633,6917.893,95.438,540.515,539.001,0.0
52617.0,STARLINK-3996,PAYLOAD,2023-02-18 19:00:42,15.08840263,0.0001276,53.2154,234.0886,85.9212,274.1926,0.00013276,1.826e-05,0.0,0 STARLINK-3996,1 52617U 22052V   23049.79216388  .00001826  00000-0  13276-3 0  9993,2 52617  53.2154 234.0886 0001276  85.9212 274.1926 15.08840263 43057,6917.88,95.438,540.627,538.862,0.0
52617.0,STARLINK-3996,PAYLOAD,2023-02-19 12:29:57,15.08838375,0.0001199,53.2157,230.8175,89.3989,270.714,0.00017696,2.529e-05,0.0,0 STARLINK-3996,1 52617U 22052V   23050.52080464  .00002529  00000-0  17696-3 0  9991,2 52617  53.2157 230.8175 0001199  89.3989 270.7140 15.08838375 42788,6917.885,95.438,540.58,538.921,0.0
52617.0,STARLINK-3996,PAYLOAD,2023-02-19 20:26:52,15.08845812,0.000118,53.217,229.3307,90.684,269.4288,0.00013599,1.877e-05,0.0,0 STARLINK-3996,1 52617U 22052V   23050.85199981  .00001877  00000-0  13599-3 0  9995,2 52617  53.2170 229.3307 0001180  90.6840 269.4288 15.08845812 43215,6917.863,95.437,540.544,538.911,0.0
52617.0,STARLINK-3996,PAYLOAD,2023-02-20 12:20:44,15.08835407,0.0001124,53.2166,226.356,89.7943,270.3178,5.5021e-05,5.88e-06,0.0,0 STARLINK-3996,1 52617U 22052V   23051.51440829  .00000588  00000-0  55021-4 0  9994,2 52617  53.2166 226.3560 0001124  89.7943 270.3178 15.08835407 42935,6917.894,95.438,540.537,538.982,0.0
52617.0,STARLINK-3996,PAYLOAD,2023-02-20 18:42:17,15.08841703,0.0001076,53.2172,225.1665,89.453,270.6585,0.00010106,1.321e-05,0.0,0 STARLINK-3996,1 52617U 22052V   23051.77936353  .00001321  00000-0  10106-3 0  9994,2 52617  53.2172 225.1665 0001076  89.4530 270.6585 15.08841703 43358,6917.875,95.437,540.485,538.996,0.0
52617.0,STARLINK-3996,PAYLOAD,2023-02-21 12:11:31,15.08839466,0.0001082,53.2162,221.8953,89.4425,270.6691,-2.8977e-05,-7.49e-06,0.0,0 STARLINK-3996,1 52617U 22052V   23052.50800263 -.00000749  00000-0 -28977-4 0  9997,2 52617  53.2162 221.8953 0001082  89.4425 270.6691 15.08839466 43081,6917.882,95.438,540.496,538.999,0.0
